ORBCOMM-X               
1 21576U 91050C   25167.47601308  .00000290  00000+0  99012-4 0  9991
2 21576  98.3434 234.0893 0003756 168.9556 191.1717 14.43263007782019
ORBCOMM FM01            
1 23545U 95017A   25168.13268627  .00004341  00000+0  45700-3 0  9998
2 23545  69.9635  74.2711 0005181 287.6716  72.3873 14.90084496612850
ORBCOMM FM02            
1 23546U 95017B   25168.20961428  .00005998  00000+0  61453-3 0  9998
2 23546  69.9646  93.4703 0006570 293.0535  66.9927 14.90950957612460
ORBCOMM FM08            
1 25112U 97084A   25168.80246630  .00001164  00000+0  36526-3 0  9996
2 25112  45.0155   4.9109 0005950 246.2676 113.7551 14.45815639441635
ORBCOMM FM10            
1 25113U 97084B   25168.85278308  .00001166  00000+0  36747-3 0  9996
2 25113  45.0166   7.0510 0004687 209.3680 150.6908 14.45604277441628
ORBCOMM FM11            
1 25114U 97084C   25168.85743588  .00001049  00000+0  33650-3 0  9994
2 25114  45.0152   7.6627 0005450 212.3842 147.6675 14.45352985441603
ORBCOMM FM12            
1 25115U 97084D   25167.85225306  .00001103  00000+0  35161-3 0  9997
2 25115  45.0159  12.2346 0004415 203.4094 156.6557 14.45372774441226
ORBCOMM FM09            
1 25116U 97084E   25168.29928597  .00001111  00000+0  35453-3 0  9992
2 25116  45.0163  11.0230 0005849 196.3372 163.7292 14.45249443441526
